NORAD_CAT_ID,OBJECT_NAME,OBJECT_TYPE,EPOCH,MEAN_MOTION,ECCENTRICITY,INCLINATION,RA_OF_ASC_NODE,ARG_OF_PERICENTER,MEAN_ANOMALY,BSTAR,MEAN_MOTION_DOT,MEAN_MOTION_DDOT,TLE_LINE0,TLE_LINE1,TLE_LINE2,SEMIMAJOR_AXIS,PERIOD,APOGEE,PERIGEE,DECAYED
56486.0,STARLINK-6201,PAYLOAD,2023-12-02 14:33:37,14.98349794,0.0002638,70.0023,52.2214,253.1072,106.9798,0.0002478,2.866e-05,0.0,0 STARLINK-6201,1 56486U 23064AQ  23336.60667902  .00002866  00000-0  24780-3 0  9993,2 56486  70.0023  52.2214 0002638 253.1072 106.9798 14.98349794 31707,6950.132,96.106,573.83,570.163,0.0
56486.0,STARLINK-6201,PAYLOAD,2023-12-03 11:23:30,14.98248821,0.0002636,70.0031,50.0368,252.1488,107.9384,-0.00088339,-0.00010595,0.0,0 STARLINK-6201,1 56486U 23064AQ  23337.47465924 -.00010595  00000-0 -88339-3 0  9999,2 56486  70.0031  50.0368 0002636 252.1488 107.9384 14.98248821 32195,6950.444,96.112,574.141,570.477,0.0
56486.0,STARLINK-6201,PAYLOAD,2023-12-03 12:59:38,14.98250472,0.0002792,70.0028,49.8684,250.8595,109.2262,-0.00086806,-0.00010414,0.0,0 STARLINK-6201,1 56486U 23064AQ  23337.54141900 -.00010414  00000-0 -86806-3 0  9999,2 56486  70.0028  49.8684 0002792 250.8595 109.2262 14.98250472 31841,6950.439,96.112,574.244,570.363,0.0
56486.0,STARLINK-6201,PAYLOAD,2023-12-03 14:35:45,14.98266685,0.0002654,70.0027,49.6966,256.2577,103.8286,-0.00057461,-6.931e-05,0.0,0 STARLINK-6201,1 56486U 23064AQ  23337.60816635 -.00006931  00000-0 -57461-3 0  9994,2 56486  70.0027  49.6966 0002654 256.2577 103.8286 14.98266685 32219,6950.389,96.111,574.098,570.409,0.0
56486.0,STARLINK-6201,PAYLOAD,2023-12-04 03:24:45,14.98334707,0.000286,70.003,48.3516,262.0673,98.0161,-0.0001363,-1.719e-05,0.0,0 STARLINK-6201,1 56486U 23064AQ  23338.14219462 -.00001719  00000-0 -13630-3 0  9998,2 56486  70.0030  48.3516 0002860 262.0673  98.0161 14.98334707 32297,6950.178,96.107,574.031,570.056,0.0
56486.0,STARLINK-6201,PAYLOAD,2023-12-04 14:37:41,14.98341951,0.0002712,70.0021,47.1715,269.1293,90.9556,-3.2128e-05,-4.76e-06,0.0,0 STARLINK-6201,1 56486U 23064AQ  23338.60950782 -.00000476  00000-0 -32128-4 0  9999,2 56486  70.0021  47.1715 0002712 269.1293  90.9556 14.98341951 32004,6950.156,96.106,573.906,570.136,0.0
56486.0,STARLINK-6201,PAYLOAD,2023-12-05 03:26:45,14.98310121,0.0003026,70.0012,45.8248,273.8924,86.1889,0.00060586,7.14e-05,0.0,0 STARLINK-6201,1 56486U 23064AQ  23339.14358695  .00007140  00000-0  60586-3 0  9995,2 56486  70.0012  45.8248 0003026 273.8924  86.1889 14.98310121 32441,6950.254,96.108,574.223,570.016,0.0
56486.0,STARLINK-6201,PAYLOAD,2023-12-05 13:03:34,14.98315339,0.0002798,70.0016,44.8139,271.9936,88.0903,0.00064935,7.66e-05,0.0,0 STARLINK-6201,1 56486U 23064AQ  23339.54414639  .00007660  00000-0  64935-3 0  9999,2 56486  70.0016  44.8139 0002798 271.9936  88.0903 14.98315339 32141,6950.238,96.108,574.048,570.159,0.0
56486.0,STARLINK-6201,PAYLOAD,2023-12-06 05:04:55,14.98309252,0.0002123,70.0031,43.1305,251.2419,108.851,0.00058093,6.841e-05,0.0,0 STARLINK-6201,1 56486U 23064AQ  23340.21174953  .00006841  00000-0  58093-3 0  9995,2 56486  70.0031  43.1305 0002123 251.2419 108.8510 14.98309252 32607,6950.257,96.108,573.598,570.647,0.0
56486.0,STARLINK-6201,PAYLOAD,2023-12-06 13:05:35,14.98339034,0.0003008,70.0014,42.2901,264.46,95.6216,-6.0953e-05,-8.2e-06,0.0,0 STARLINK-6201,1 56486U 23064AQ  23340.54554866 -.00000820  00000-0 -60953-4 0  9998,2 56486  70.0014  42.2901 0003008 264.4600  95.6216 14.98339034 32293,6950.165,96.106,574.121,569.939,0.0
56486.0,STARLINK-6201,PAYLOAD,2023-12-07 13:07:36,14.98334161,0.0002696,70.0021,39.7662,251.4638,108.6228,-0.00014504,-1.823e-05,0.0,0 STARLINK-6201,1 56486U 23064AQ  23341.54694776 -.00001823  00000-0 -14504-3 0  9998,2 56486  70.0021  39.7662 0002696 251.4638 108.6228 14.98334161 32446,6950.18,96.107,573.919,570.171,0.0
56486.0,STARLINK-6201,PAYLOAD,2023-12-08 13:09:36,14.98342504,0.0003222,70.001,37.2402,265.5589,94.5202,-0.000156,-1.955e-05,0.0,0 STARLINK-6201,1 56486U 23064AQ  23342.54833881 -.00001955  00000-0 -15600-3 0  9995,2 56486  70.0010  37.2402 0003222 265.5589  94.5202 14.98342504 32597,6950.154,96.106,574.259,569.78,0.0
56486.0,STARLINK-6201,PAYLOAD,2023-12-09 11:35:29,14.98325817,0.0002604,70.0022,34.8855,251.5967,108.4909,1.0868e-05,3.7e-07,0.0,0 STARLINK-6201,1 56486U 23064AQ  23343.48298515  .00000037  00000-0  10868-4 0  9998,2 56486  70.0022  34.8855 0002604 251.5967 108.4909 14.98325817 33096,6950.206,96.107,573.881,570.261,0.0
56486.0,STARLINK-6201,PAYLOAD,2023-12-09 13:11:37,14.98327104,0.0002759,70.0015,34.716,258.9947,101.0902,1.4668e-05,8.2e-07,0.0,0 STARLINK-6201,1 56486U 23064AQ  23343.54974414  .00000082  00000-0  14668-4 0  9996,2 56486  70.0015  34.7160 0002759 258.9947 101.0902 14.98327104 32740,6950.202,96.107,573.984,570.149,0.0
56486.0,STARLINK-6201,PAYLOAD,2023-12-10 13:13:38,14.98332726,0.0002974,70.0009,32.1904,264.9586,95.1234,5.3752e-06,-2.9e-07,0.0,0 STARLINK-6201,1 56486U 23064AQ  23344.55113963 -.00000029  00000-0  53752-5 0  9992,2 56486  70.0009  32.1904 0002974 264.9586  95.1234 14.98332726 32899,6950.184,96.107,574.116,569.982,0.0
56486.0,STARLINK-6201,PAYLOAD,2023-12-11 03:38:51,14.98316101,0.0002962,70.0007,30.6743,272.6567,87.4253,0.0002288,2.637e-05,0.0,0 STARLINK-6201,1 56486U 23064AQ  23345.15198138  .00002637  00000-0  22880-3 0  9998,2 56486  70.0007  30.6743 0002962 272.6567  87.4253 14.98316101 33348,6950.236,96.108,574.16,570.042,0.0
56486.0,STARLINK-6201,PAYLOAD,2023-12-11 11:39:31,14.98329834,0.0002954,70.0008,29.834,261.7225,98.36,6.4452e-06,-1.6e-07,0.0,0 STARLINK-6201,1 56486U 23064AQ  23345.48578011 -.00000016  00000-0  64452-5 0  9999,2 56486  70.0008  29.8340 0002954 261.7225  98.3600 14.98329834 33392,6950.193,96.107,574.111,570.005,0.0
56486.0,STARLINK-6201,PAYLOAD,2023-12-11 13:15:39,14.98325275,0.0003077,70.0004,29.6648,269.7167,90.3639,0.00010023,1.103e-05,0.0,0 STARLINK-6201,1 56486U 23064AQ  23345.55254164  .00001103  00000-0  10023-3 0  9997,2 56486  70.0004  29.6648 0003077 269.7167  90.3639 14.98325275 33048,6950.208,96.107,574.211,569.934,0.0
56486.0,STARLINK-6201,PAYLOAD,2023-12-12 11:41:32,14.9833053,0.0003031,70.0006,27.3086,263.9581,96.1232,8.555e-06,9e-08,0.0,0 STARLINK-6201,1 56486U 23064AQ  23346.48717869  .00000009  00000-0  85550-5 0  9999,2 56486  70.0006  27.3086 0003031 263.9581  96.1232 14.98330530 33545,6950.191,96.107,574.163,569.95,0.0
56486.0,STARLINK-6201,PAYLOAD,2023-12-12 13:17:40,14.98330533,0.0003086,70.0006,27.1397,269.3298,90.7508,1.5093e-05,8.7e-07,0.0,0 STARLINK-6201,1 56486U 23064AQ  23346.55393873  .00000087  00000-0  15093-4 0  9992,2 56486  70.0006  27.1397 0003086 269.3298  90.7508 14.98330533 33193,6950.191,96.107,574.201,569.911,0.0
56486.0,STARLINK-6201,PAYLOAD,2023-12-13 11:43:33,14.9832933,0.000294,70.0007,24.7838,263.3538,96.7286,1.0343e-05,3e-07,0.0,0 STARLINK-6201,1 56486U 23064AQ  23347.48857927  .00000030  00000-0  10343-4 0  9991,2 56486  70.0007  24.7838 0002940 263.3538  96.7286 14.98329330 33693,6950.195,96.107,574.103,570.017,0.0
56486.0,STARLINK-6201,PAYLOAD,2023-12-14 11:45:34,14.98331194,0.0002946,70.0007,22.2588,265.2725,94.8097,1.7774e-05,1.19e-06,0.0,0 STARLINK-6201,1 56486U 23064AQ  23348.48997729  .00000119  00000-0  17774-4 0  9990,2 56486  70.0007  22.2588 0002946 265.2725  94.8097 14.98331194 33840,6950.189,96.107,574.102,570.007,0.0
56486.0,STARLINK-6201,PAYLOAD,2023-12-15 11:47:35,14.98327301,0.0002882,70.0008,19.7343,262.6103,97.4728,-1.6234e-05,-2.87e-06,0.0,0 STARLINK-6201,1 56486U 23064AQ  23349.49138064 -.00000287  00000-0 -16234-4 0  9999,2 56486  70.0008  19.7343 0002882 262.6103  97.4728 14.98327301 33992,6950.201,96.107,574.069,570.063,0.0
56486.0,STARLINK-6201,PAYLOAD,2023-12-16 11:49:36,14.98330342,0.0002876,70.0007,17.2093,263.3783,96.7049,9.8191e-07,-8.1e-07,0.0,0 STARLINK-6201,1 56486U 23064AQ  23350.49277859 -.00000081  00000-0  98191-6 0  9992,2 56486  70.0007  17.2093 0002876 263.3783  96.7049 14.98330342 34146,6950.192,96.107,574.056,570.058,0.0
56486.0,STARLINK-6201,PAYLOAD,2023-12-17 11:51:37,14.98328434,0.0002842,70.0007,14.6844,263.7732,96.3103,2.6161e-05,2.19e-06,0.0,0 STARLINK-6201,1 56486U 23064AQ  23351.49417960  .00000219  00000-0  26161-4 0  9990,2 56486  70.0007  14.6844 0002842 263.7732  96.3103 14.98328434 34294,6950.198,96.107,574.038,570.087,0.0
56486.0,STARLINK-6201,PAYLOAD,2023-12-18 03:52:57,14.98335267,0.0002915,70.0005,13.0005,267.0116,93.0709,4.7201e-05,4.7e-06,0.0,0 STARLINK-6201,1 56486U 23064AQ  23352.16177391  .00000470  00000-0  47201-4 0  9993,2 56486  70.0005  13.0005 0002915 267.0116  93.0709 14.98335267 34397,6950.177,96.107,574.068,570.016,0.0
56486.0,STARLINK-6201,PAYLOAD,2023-12-18 11:53:37,14.98338216,0.0002855,70.0006,12.159,265.7445,94.3388,7.9643e-05,8.58e-06,0.0,0 STARLINK-6201,1 56486U 23064AQ  23352.49556969  .00000858  00000-0  79643-4 0  9996,2 56486  70.0006  12.1590 0002855 265.7445  94.3388 14.98338216 34080,6950.167,96.106,574.017,570.048,0.0
56486.0,STARLINK-6201,PAYLOAD,2023-12-19 03:54:58,14.98325824,0.0002416,70.0023,10.4791,237.4791,122.6135,-6.0679e-06,-1.65e-06,0.0,0 STARLINK-6201,1 56486U 23064AQ  23353.16317976 -.00000165  00000-0 -60679-5 0  9997,2 56486  70.0023  10.4791 0002416 237.4791 122.6135 14.98325824 34543,6950.206,96.107,573.75,570.392,0.0
56486.0,STARLINK-6201,PAYLOAD,2023-12-19 10:19:30,14.98344921,0.0002474,70.0004,9.8026,258.3854,101.7028,-0.00039435,-4.797e-05,0.0,0 STARLINK-6201,1 56486U 23064AQ  23353.43021853 -.00004797  00000-0 -39435-3 0  9992,2 56486  70.0004   9.8026 0002474 258.3854 101.7028 14.98344921 34224,6950.147,96.106,573.731,570.292,0.0
56486.0,STARLINK-6201,PAYLOAD,2023-12-20 03:56:59,14.98329516,0.0002821,70.0006,7.9507,269.2228,90.8608,-8.5692e-05,-1.115e-05,0.0,0 STARLINK-6201,1 56486U 23064AQ  23354.16458167 -.00001115  00000-0 -85692-4 0  9993,2 56486  70.0006   7.9507 0002821 269.2228  90.8608 14.98329516 34697,6950.194,96.107,574.02,570.099,0.0
